*******************************************************************************
Ephemeris / WWW_USER Thu Dec  5 18:35:48 2024 Pasadena, USA      / Horizons    
*******************************************************************************
Target body name: Titan (606)                     {source: sat441l}
Center body name: Earth (399)                     {source: DE441}
Center-site name: Mauna Kea
*******************************************************************************
Start time      : A.D. 2019-Jan-16 04:13:00.0000 UT      
Stop  time      : A.D. 2019-Jan-16 16:49:00.0000 UT      
Step-size       : 1 minutes
*******************************************************************************
Target pole/equ : IAU_TITAN                       {West-longitude positive}
Target radii    : 2575.15, 2574.78, 2574.47 km    {Equator_a, b, pole_c}       
Center geodetic : 204.5278, 19.8260847, 4.21024   {E-lon(deg),Lat(deg),Alt(km)}
Center cylindric: 204.5278, 6006.35451, 2151.0229 {E-lon(deg),Dxy(km),Dz(km)}
Center pole/equ : ITRF93                          {East-longitude positive}
Center radii    : 6378.137, 6378.137, 6356.752 km {Equator_a, b, pole_c}       
Target primary  : Saturn
Vis. interferer : MOON (R_eq= 1737.400) km        {source: DE441}
Rel. light bend : Sun                             {source: DE441}
Rel. lght bnd GM: 1.3271E+11 km^3/s^2                                          
Atmos refraction: NO (AIRLESS)
RA format       : HMS
Time format     : CAL 
Calendar mode   : Mixed Julian/Gregorian
RTS-only print  : NO       
EOP file        : eop.241205.p250303                                           
EOP coverage    : DATA-BASED 1962-JAN-20 TO 2024-DEC-05. PREDICTS-> 2025-MAR-02
Units conversion: 1 au= 149597870.700 km, c= 299792.458 km/s, 1 day= 86400.0 s 
Table cut-offs 1: Elevation (-90.0deg=NO ),Airmass (>38.000=NO), Daylight (YES)
Table cut-offs 2: Solar elongation (  0.0,180.0=NO ),Local Hour Angle( 0.0=NO )
Table cut-offs 3: RA/DEC angular rate (     0.0=NO )                           
*******************************************************************************
 Date__(UT)__HR:MN     R.A._________(ICRF)_________DEC
******************************************************
$$SOE
 2019-Jan-16 06:34  m  18 55 45.401711 -22 20 30.59722
 2019-Jan-16 06:35  m  18 55 45.422736 -22 20 30.55385
 2019-Jan-16 06:36  m  18 55 45.443762 -22 20 30.51048
 2019-Jan-16 06:37  m  18 55 45.464790 -22 20 30.46712
 2019-Jan-16 06:38  m  18 55 45.485820 -22 20 30.42376
 2019-Jan-16 06:39  m  18 55 45.506850 -22 20 30.38041
 2019-Jan-16 06:40  m  18 55 45.527882 -22 20 30.33706
 2019-Jan-16 06:41  m  18 55 45.548916 -22 20 30.29372
 2019-Jan-16 06:42  m  18 55 45.569951 -22 20 30.25038
 2019-Jan-16 06:43  m  18 55 45.590988 -22 20 30.20704
 2019-Jan-16 06:44  m  18 55 45.612026 -22 20 30.16371
 2019-Jan-16 06:45  m  18 55 45.633065 -22 20 30.12039
 2019-Jan-16 06:46  m  18 55 45.654106 -22 20 30.07707
 2019-Jan-16 06:47  m  18 55 45.675149 -22 20 30.03375
 2019-Jan-16 06:48  m  18 55 45.696192 -22 20 29.99044
 2019-Jan-16 06:49  m  18 55 45.717238 -22 20 29.94714
 2019-Jan-16 06:50  m  18 55 45.738284 -22 20 29.90384
 2019-Jan-16 06:51  m  18 55 45.759332 -22 20 29.86054
 2019-Jan-16 06:52  m  18 55 45.780382 -22 20 29.81725
 2019-Jan-16 06:53  m  18 55 45.801433 -22 20 29.77397
 2019-Jan-16 06:54  m  18 55 45.822485 -22 20 29.73069
 2019-Jan-16 06:55  m  18 55 45.843539 -22 20 29.68741
 2019-Jan-16 06:56  m  18 55 45.864594 -22 20 29.64414
 2019-Jan-16 06:57  m  18 55 45.885651 -22 20 29.60087
 2019-Jan-16 06:58  m  18 55 45.906709 -22 20 29.55761
 2019-Jan-16 06:59  m  18 55 45.927768 -22 20 29.51436
 2019-Jan-16 07:00  m  18 55 45.948829 -22 20 29.47111
 2019-Jan-16 07:01  m  18 55 45.969891 -22 20 29.42786
 2019-Jan-16 07:02  m  18 55 45.990954 -22 20 29.38462
 2019-Jan-16 07:03  m  18 55 46.012019 -22 20 29.34138
 2019-Jan-16 07:04  m  18 55 46.033086 -22 20 29.29815
 2019-Jan-16 07:05  m  18 55 46.054153 -22 20 29.25493
 2019-Jan-16 07:06  m  18 55 46.075222 -22 20 29.21171
 2019-Jan-16 07:07  m  18 55 46.096293 -22 20 29.16849
 2019-Jan-16 07:08  m  18 55 46.117365 -22 20 29.12528
 2019-Jan-16 07:09  m  18 55 46.138438 -22 20 29.08208
 2019-Jan-16 07:10  m  18 55 46.159512 -22 20 29.03888
 2019-Jan-16 07:11  m  18 55 46.180588 -22 20 28.99569
 2019-Jan-16 07:12  m  18 55 46.201665 -22 20 28.95250
 2019-Jan-16 07:13  m  18 55 46.222744 -22 20 28.90931
 2019-Jan-16 07:14  m  18 55 46.243824 -22 20 28.86613
 2019-Jan-16 07:15  m  18 55 46.264905 -22 20 28.82296
 2019-Jan-16 07:16  m  18 55 46.285988 -22 20 28.77979
 2019-Jan-16 07:17  m  18 55 46.307072 -22 20 28.73663
 2019-Jan-16 07:18  m  18 55 46.328157 -22 20 28.69347
 2019-Jan-16 07:19  m  18 55 46.349243 -22 20 28.65032
 2019-Jan-16 07:20  m  18 55 46.370331 -22 20 28.60718
 2019-Jan-16 07:21  m  18 55 46.391421 -22 20 28.56404
 2019-Jan-16 07:22  m  18 55 46.412511 -22 20 28.52090
 2019-Jan-16 07:23  m  18 55 46.433603 -22 20 28.47777
 2019-Jan-16 07:24  m  18 55 46.454696 -22 20 28.43464
 2019-Jan-16 07:25  m  18 55 46.475791 -22 20 28.39153
 2019-Jan-16 07:26  m  18 55 46.496886 -22 20 28.34841
 2019-Jan-16 07:27  m  18 55 46.517983 -22 20 28.30530
 2019-Jan-16 07:28  m  18 55 46.539082 -22 20 28.26220
 2019-Jan-16 07:29  m  18 55 46.560181 -22 20 28.21910
 2019-Jan-16 07:30  m  18 55 46.581282 -22 20 28.17601
 2019-Jan-16 07:31  m  18 55 46.602385 -22 20 28.13292
 2019-Jan-16 07:32  m  18 55 46.623488 -22 20 28.08984
 2019-Jan-16 07:33  m  18 55 46.644593 -22 20 28.04677
 2019-Jan-16 07:34  m  18 55 46.665699 -22 20 28.00370
 2019-Jan-16 07:35  m  18 55 46.686806 -22 20 27.96063
 2019-Jan-16 07:36  m  18 55 46.707915 -22 20 27.91758
 2019-Jan-16 07:37  m  18 55 46.729024 -22 20 27.87452
 2019-Jan-16 07:38  m  18 55 46.750135 -22 20 27.83147
 2019-Jan-16 07:39  m  18 55 46.771248 -22 20 27.78843
 2019-Jan-16 07:40  m  18 55 46.792361 -22 20 27.74540
 2019-Jan-16 07:41  m  18 55 46.813476 -22 20 27.70237
 2019-Jan-16 07:42  m  18 55 46.834592 -22 20 27.65934
 2019-Jan-16 07:43  m  18 55 46.855709 -22 20 27.61632
 2019-Jan-16 07:44  m  18 55 46.876828 -22 20 27.57331
 2019-Jan-16 07:45  m  18 55 46.897948 -22 20 27.53030
 2019-Jan-16 07:46  m  18 55 46.919069 -22 20 27.48730
 2019-Jan-16 07:47  m  18 55 46.940191 -22 20 27.44430
 2019-Jan-16 07:48  m  18 55 46.961314 -22 20 27.40131
 2019-Jan-16 07:49  m  18 55 46.982439 -22 20 27.35833
 2019-Jan-16 07:50  m  18 55 47.003564 -22 20 27.31535
 2019-Jan-16 07:51  m  18 55 47.024691 -22 20 27.27237
 2019-Jan-16 07:52  m  18 55 47.045820 -22 20 27.22941
 2019-Jan-16 07:53  m  18 55 47.066949 -22 20 27.18644
 2019-Jan-16 07:54  m  18 55 47.088080 -22 20 27.14349
 2019-Jan-16 07:55  m  18 55 47.109211 -22 20 27.10054
 2019-Jan-16 07:56  m  18 55 47.130344 -22 20 27.05759
 2019-Jan-16 07:57  m  18 55 47.151478 -22 20 27.01466
 2019-Jan-16 07:58  m  18 55 47.172614 -22 20 26.97172
 2019-Jan-16 07:59  m  18 55 47.193750 -22 20 26.92880
 2019-Jan-16 08:00  m  18 55 47.214888 -22 20 26.88588
 2019-Jan-16 08:01  m  18 55 47.236026 -22 20 26.84296
 2019-Jan-16 08:02  m  18 55 47.257166 -22 20 26.80005
 2019-Jan-16 08:03  m  18 55 47.278307 -22 20 26.75715
 2019-Jan-16 08:04  m  18 55 47.299450 -22 20 26.71425
 2019-Jan-16 08:05  m  18 55 47.320593 -22 20 26.67136
 2019-Jan-16 08:06  m  18 55 47.341738 -22 20 26.62847
 2019-Jan-16 08:07  m  18 55 47.362883 -22 20 26.58559
 2019-Jan-16 08:08  m  18 55 47.384030 -22 20 26.54272
 2019-Jan-16 08:09  m  18 55 47.405178 -22 20 26.49985
 2019-Jan-16 08:10  m  18 55 47.426327 -22 20 26.45699
 2019-Jan-16 08:11  m  18 55 47.447477 -22 20 26.41414
 2019-Jan-16 08:12  m  18 55 47.468628 -22 20 26.37129
 2019-Jan-16 08:13  m  18 55 47.489781 -22 20 26.32844
 2019-Jan-16 08:14  m  18 55 47.510934 -22 20 26.28561
 2019-Jan-16 08:15  m  18 55 47.532089 -22 20 26.24277
 2019-Jan-16 08:16  m  18 55 47.553245 -22 20 26.19995
 2019-Jan-16 08:17  m  18 55 47.574401 -22 20 26.15713
 2019-Jan-16 08:18  m  18 55 47.595559 -22 20 26.11432
 2019-Jan-16 08:19  m  18 55 47.616718 -22 20 26.07151
 2019-Jan-16 08:20  m  18 55 47.637878 -22 20 26.02871
 2019-Jan-16 08:21  m  18 55 47.659039 -22 20 25.98591
 2019-Jan-16 08:22  m  18 55 47.680202 -22 20 25.94312
 2019-Jan-16 08:23  m  18 55 47.701365 -22 20 25.90034
 2019-Jan-16 08:24  m  18 55 47.722529 -22 20 25.85756
 2019-Jan-16 08:25  m  18 55 47.743695 -22 20 25.81479
 2019-Jan-16 08:26  m  18 55 47.764861 -22 20 25.77203
 2019-Jan-16 08:27  m  18 55 47.786028 -22 20 25.72927
 2019-Jan-16 08:28  m  18 55 47.807197 -22 20 25.68652
 2019-Jan-16 08:29  m  18 55 47.828367 -22 20 25.64377
 2019-Jan-16 08:30  m  18 55 47.849537 -22 20 25.60103
 2019-Jan-16 08:31  m  18 55 47.870709 -22 20 25.55830
 2019-Jan-16 08:32  m  18 55 47.891881 -22 20 25.51557
 2019-Jan-16 08:33  m  18 55 47.913055 -22 20 25.47285
 2019-Jan-16 08:34  m  18 55 47.934230 -22 20 25.43013
 2019-Jan-16 08:35  m  18 55 47.955406 -22 20 25.38742
 2019-Jan-16 08:36  m  18 55 47.976582 -22 20 25.34472
 2019-Jan-16 08:37  m  18 55 47.997760 -22 20 25.30202
 2019-Jan-16 08:38  m  18 55 48.018939 -22 20 25.25933
 2019-Jan-16 08:39  m  18 55 48.040119 -22 20 25.21665
 2019-Jan-16 08:40  m  18 55 48.061299 -22 20 25.17397
 2019-Jan-16 08:41  m  18 55 48.082481 -22 20 25.13130
 2019-Jan-16 08:42  m  18 55 48.103664 -22 20 25.08863
 2019-Jan-16 08:43  m  18 55 48.124848 -22 20 25.04597
 2019-Jan-16 08:44  m  18 55 48.146032 -22 20 25.00332
 2019-Jan-16 08:45  m  18 55 48.167218 -22 20 24.96067
 2019-Jan-16 08:46  m  18 55 48.188404 -22 20 24.91803
 2019-Jan-16 08:47  m  18 55 48.209592 -22 20 24.87540
 2019-Jan-16 08:48  m  18 55 48.230781 -22 20 24.83277
 2019-Jan-16 08:49  m  18 55 48.251970 -22 20 24.79015
 2019-Jan-16 08:50  m  18 55 48.273161 -22 20 24.74754
 2019-Jan-16 08:51  m  18 55 48.294352 -22 20 24.70493
 2019-Jan-16 08:52  m  18 55 48.315544 -22 20 24.66232
 2019-Jan-16 08:53  m  18 55 48.336738 -22 20 24.61973
 2019-Jan-16 08:54  m  18 55 48.357932 -22 20 24.57714
